OBJECT_NAME,OBJECT_ID,EPOCH,MEAN_MOTION,ECCENTRICITY,INCLINATION,RA_OF_ASC_NODE,ARG_OF_PERICENTER,MEAN_ANOMALY,EPHEMERIS_TYPE,CLASSIFICATION_TYPE,NORAD_CAT_ID,ELEMENT_SET_NO,REV_AT_EPOCH,BSTAR,MEAN_MOTION_DOT,MEAN_MOTION_DDOT
OPS 6582 (TRANSIT 5B-5),1964-083D,2026-06-10T14:46:49.161792,13.57012227,.00396664,90.0765,202.9874,298.4677,176.4421,0,U,965,999,4272,.81821082E-4,.67E-6,0
LES-1,1965-008C,2026-06-10T08:42:44.025120,9.88354979,.00156093,32.1457,60.8691,245.9496,113.9368,0,U,1002,999,21551,-.12486036E-2,-.1E-7,0
SOLRAD 7B,1965-016D,2026-06-10T14:04:16.505760,13.94974909,.00191327,70.0794,250.2967,134.8407,225.4258,0,U,1291,999,11578,.32486228E-4,-.8E-7,0
SECOR 4 (EGRS 4),1965-027B,2026-06-10T14:20:25.022112,12.92667572,.00300552,90.2498,15.4294,215.0440,200.3479,0,U,1315,999,88607,.27210966E-3,.81E-6,0
TIROS 10,1965-051A,2026-06-10T14:07:17.918112,14.41628644,.00564684,98.5031,280.9483,98.7581,262.0009,0,U,1430,999,19496,.5531473E-4,.139E-5,0
ALOUETTE 2,1965-098A,2026-06-10T13:35:34.587456,12.28337899,.13296843,79.8015,282.2885,245.9664,99.6842,0,U,1804,999,67846,.1390683E-3,.418E-5,0
OV3-3,1966-070A,2026-06-10T14:13:47.780832,13.45165047,.10126861,81.3252,336.8306,174.7737,186.5026,0,U,2389,999,59808,.67986909E-3,.15189E-3,0
SECOR 7 (EGRS 7),1966-077B,2026-05-31T19:23:56.009760,8.59615314,.0011654,90.3353,277.2466,75.1080,285.1061,0,U,2411,999,87597,-.94660848E-2,-.17E-6,0
ERS 15,1966-077C,2026-05-30T06:48:48.924576,8.59079282,.00073123,90.3351,277.0217,86.0359,274.1328,0,U,2412,999,38892,0,.2E-7,0
ISIS 1,1969-009A,2026-06-10T04:47:04.706592,11.30433019,.1706046,88.4420,145.1675,262.3499,78.1416,0,U,3669,999,35898,.53146E-4,.71E-6,0
SECOR 13 (EGRS 13),1969-037B,2026-06-10T14:43:47.968032,13.42976767,.0038665,99.6499,33.3860,267.5617,157.0681,0,U,3891,999,80087,.20944948E-4,-.31E-6,0
ATS 5,1969-069A,2026-06-10T12:20:31.693344,0.99497597,.00052471,0.2486,155.5101,124.0639,324.6132,0,U,4068,999,4626,0,-.223E-5,0
OPS 7613 (P/L 4),1969-082E,2026-06-10T14:23:03.992928,13.95995424,.00188462,70.0138,117.9637,145.0037,34.5524,0,U,4237,999,88538,.52651376E-4,.19E-6,0
OPS 7613 (P/L 1),1969-082B,2026-06-10T14:06:47.594304,13.99195995,.00171908,70.0102,339.1915,71.6795,288.6181,0,U,4256,999,88954,.86511467E-4,.72E-6,0
SHINSEI (MS-F2),1971-080A,2026-06-10T14:03:41.753952,12.74251956,.06396246,32.0530,131.6932,355.4192,4.0749,0,U,5485,999,54841,.67665088E-4,.51E-6,0
PROSPERO (BLACK ARROW),1971-093A,2026-06-10T07:15:45.058176,14.01593999,.05001575,82.0386,296.8728,246.8235,107.9513,0,U,5580,999,74756,.23025629E-3,.1078E-4,0
OPS 7898 (P/L 2),1971-110C,2026-06-10T14:55:44.789088,13.74758322,.00081964,69.9904,16.4695,195.6835,164.4006,0,U,5680,999,34731,.47230139E-4,-.5E-7,0
NOAA 2 (ITOS-D),1972-082A,2026-06-10T14:10:10.407072,12.53214761,.00041643,102.0074,180.0897,176.9912,304.9205,0,U,6235,999,45412,.11785724E-3,-.28E-6,0
OSCAR 7 (AO-7),1974-089B,2026-06-10T06:45:47.157984,12.53697951,.0012501,101.9901,174.4563,142.9960,284.8697,0,U,7530,999,35965,.84573E-4,-.33E-6,0
TIROS N,1978-096A,2026-06-10T13:58:23.452032,14.19373268,.00091395,98.4531,182.9343,260.5525,99.4618,0,U,11060,999,67781,.67385698E-4,.1E-5,0
PHASE 3B (AO-10),1983-058B,2026-06-07T04:08:14.383680,2.05872980,.60142661,25.9048,221.2242,112.9115,319.2048,0,U,14129,999,29528,0,-.194E-5,0
HILAT,1983-063A,2026-06-10T12:04:42.769056,14.38707193,.00381928,82.0231,167.2405,312.4630,161.7667,0,U,14154,999,24662,.10173945E-3,.33E-5,0
UOSAT 2 (UO-11),1984-021B,2026-06-10T04:10:08.710752,14.90765931,.00069809,97.8055,126.8269,196.0557,164.0441,0,U,14781,999,25608,.12370125E-3,.116E-4,0
NOAA 9,1984-123A,2026-06-10T13:50:50.512128,14.17066416,.00148357,99.0989,188.0614,12.9851,102.7748,0,U,15427,999,14248,.64231116E-4,.83E-6,0
GEOSAT,1985-021A,2026-06-10T14:51:24.799392,14.39963246,.00012645,108.0434,67.7802,283.1904,76.9097,0,U,15595,999,16182,.67766914E-4,.78E-6,0
EUTELSAT 1-F4 (ECS 4),1987-078B,2026-06-10T06:24:03.424320,0.98691179,.0011178,13.8334,342.1769,43.3250,319.8177,0,U,18351,999,12669,0,-.217E-5,0
PACSAT (AO-16),1990-005D,2026-06-10T15:00:38.151648,14.33934604,.00095326,98.8524,197.1507,248.7150,228.9814,0,U,20439,999,90099,.52724959E-4,.1E-5,0
LUSAT (LO-19),1990-005G,2026-06-10T13:17:39.635808,14.34121162,.00107749,98.8852,183.1766,221.6340,138.4024,0,U,20442,999,90144,.52314203E-4,.1E-5,0
IRS-1B,1991-061A,2026-06-10T14:48:19.363392,13.97874026,.00249263,99.4109,169.3991,23.6065,94.2742,0,U,21688,999,66757,.26874977E-3,.335E-5,0
COSMOS 2197,1992-042A,2026-06-10T14:13:33.365856,12.64251932,.00113885,82.5943,233.1468,290.3998,183.3655,0,U,22034,999,56445,-.35292737E-4,.4E-7,0
