{"_default": { "38": {"norad_id": "15427", "name": "NOAA 9", "tle1": "1 15427U 84123A   26161.57697352  .00000083  00000-0  64231-4 0  9998", "tle2": "2 15427  99.0989 188.0614 0014836  12.9851 102.7748 14.17066416142485", "object_type": "PAYLOAD", "criticality_score": 8.5, "last_updated": "2026-06-11T12:15:23.970987+00:00", "maneuver_count": 0}, "39": {"norad_id": "14781", "name": "OSCAR 11 (UOSAT 2)", "tle1": "1 14781U 84021B   26161.17371193  .00001160  00000-0  12370-3 0  9998", "tle2": "2 14781  97.8055 126.8269 0006981 196.0557 164.0441 14.90765931256084", "object_type": "PAYLOAD", "criticality_score": 7.0, "last_updated": "2026-06-11T12:15:23.970987+00:00", "maneuver_count": 0}, "40": {"norad_id": "7530", "name": "OSCAR 7", "tle1": "1  7530U 74089B   26161.28179581 -.00000033  00000-0  84573-4 0  9998", "tle2": "2  7530 101.9901 174.4563 0012501 142.9960 284.8697 12.53697951359658", "object_type": "PAYLOAD", "criticality_score": 7.0, "last_updated": "2026-06-11T12:15:23.970987+00:00", "maneuver_count": 0}, "101": {"norad_id": "20442", "name": "OSCAR 19 (LUSAT)", "tle1": "1 20442U 90005G   26161.55393097  .00000100  00000-0  52314-4 0  9993", "tle2": "2 20442  98.8852 183.1766 0010775 221.6340 138.4024 14.34121162901449", "object_type": "PAYLOAD", "criticality_score": 7.0, "last_updated": "2026-06-11T12:15:23.970987+00:00", "maneuver_count": 0}, "129": {"norad_id": "965", "name": "OPS 6582 (TRANSIT 5B-5)", "tle1": "1 00965U 64083D   26161.61584678  .00000067  00000-0  81821-4 0  9999", "tle2": "2 00965  90.0765 202.9874 0039666 298.4677 176.4421 13.57012227 42724", "object_type": "PAYLOAD", "criticality_score": 7.0, "last_updated": "2026-06-11T12:15:23.970987+00:00", "maneuver_count": 0}, "153": {"norad_id": "14129", "name": "OSCAR 10", "tle1": "1 14129U 83058B   26158.17238870 -.00000194  00000-0  00000-0 0  9994", "tle2": "2 14129  25.9048 221.2242 6014266 112.9115 319.2048  2.05872980295281", "object_type": "PAYLOAD", "criticality_score": 7.0, "last_updated": "2026-06-11T12:15:23.970987+00:00", "maneuver_count": 0}, "169": {"norad_id": "1002", "name": "LES 1", "tle1": "1 01002U 65008C   26161.36300955 -.00000001  00000-0 -12486-2 0  9995", "tle2": "2 01002  32.1457  60.8691 0015609 245.9496 113.9368  9.88354979215514", "object_type": "PAYLOAD", "criticality_score": 7.0, "last_updated": "2026-06-11T12:15:23.970987+00:00", "maneuver_count": 0}, "170": {"norad_id": "1291", "name": "SOLRAD 7B", "tle1": "1 01291U 65016D   26161.58630215 -.00000008  00000-0  32486-4 0  9993", "tle2": "2 01291  70.0794 250.2967 0019133 134.8407 225.4258 13.94974909115782", "object_type": "PAYLOAD", "criticality_score": 7.0, "last_updated": "2026-06-11T12:15:23.970987+00:00", "maneuver_count": 0}, "171": {"norad_id": "1804", "name": "ALOUETTE 2", "tle1": "1 01804U 65098A   26161.56637254  .00000418  00000-0  13907-3 0  9991", "tle2": "2 01804  79.8015 282.2885 1329684 245.9664  99.6842 12.28337899678460", "object_type": "PAYLOAD", "criticality_score": 7.0, "last_updated": "2026-06-11T12:15:23.970987+00:00", "maneuver_count": 0}, "172": {"norad_id": "2389", "name": "OV3-3", "tle1": "1 02389U 66070A   26161.59291413  .00015189  00000-0  67987-3 0  9995", "tle2": "2 02389  81.3252 336.8306 1012686 174.7737 186.5026 13.45165047598088", "object_type": "PAYLOAD", "criticality_score": 7.0, "last_updated": "2026-06-11T12:15:23.970987+00:00", "maneuver_count": 0}, "173": {"norad_id": "2412", "name": "ERS 15", "tle1": "1 02412U 66077C   26150.28389959  .00000002  00000-0  00000-0 0  9994", "tle2": "2 02412  90.3351 277.0217 0007312  86.0359 274.1328  8.59079282388929", "object_type": "PAYLOAD", "criticality_score": 7.0, "last_updated": "2026-06-11T12:15:23.970987+00:00", "maneuver_count": 0}, "174": {"norad_id": "3669", "name": "ISIS 1", "tle1": "1  3669U 69009A   26161.19936003  .00000071  00000-0  53146-4 0  9996", "tle2": "2  3669  88.4420 145.1675 1706046 262.3499  78.1416 11.30433019358985", "object_type": "PAYLOAD", "criticality_score": 7.0, "last_updated": "2026-06-11T12:15:23.970987+00:00", "maneuver_count": 0}, "175": {"norad_id": "4237", "name": "OPS 7613 (P/L 4)", "tle1": "1 04237U 69082E   26161.59935177  .00000019  00000-0  52651-4 0  9996", "tle2": "2 04237  70.0138 117.9637 0018846 145.0037  34.5524 13.95995424885384", "object_type": "PAYLOAD", "criticality_score": 7.0, "last_updated": "2026-06-11T12:15:23.970987+00:00", "maneuver_count": 0}, "176": {"norad_id": "4256", "name": "OPS 7613 (P/L 1)", "tle1": "1 04256U 69082B   26161.58805086  .00000072  00000-0  86511-4 0  9992", "tle2": "2 04256  70.0102 339.1915 0017191  71.6795 288.6181 13.99195995889542", "object_type": "PAYLOAD", "criticality_score": 7.0, "last_updated": "2026-06-11T12:15:23.970987+00:00", "maneuver_count": 0}, "177": {"norad_id": "5485", "name": "SHINSEI (MS-F2)", "tle1": "1 05485U 71080A   26161.58589993  .00000051  00000-0  67665-4 0  9990", "tle2": "2 05485  32.0530 131.6932 0639625 355.4192   4.0749 12.74251956548410", "object_type": "PAYLOAD", "criticality_score": 7.0, "last_updated": "2026-06-11T12:15:23.970987+00:00", "maneuver_count": 0}, "178": {"norad_id": "5680", "name": "OPS 7898 (P/L 2)", "tle1": "1 05680U 71110C   26161.62204617 -.00000005  00000-0  47230-4 0  9999", "tle2": "2 05680  69.9904  16.4695 0008196 195.6835 164.4006 13.74758322347311", "object_type": "PAYLOAD", "criticality_score": 7.0, "last_updated": "2026-06-11T12:15:23.970987+00:00", "maneuver_count": 0}, "179": {"norad_id": "18351", "name": "EUTE 1-F4 (ECS 4)", "tle1": "1 18351U 87078B   26161.26670630 -.00000217  00000-0  00000+0 0  9994", "tle2": "2 18351  13.8334 342.1769 0011178  43.3250 319.8177  0.98691179126699", "object_type": "PAYLOAD", "criticality_score": 7.0, "last_updated": "2026-06-11T12:15:23.970987+00:00", "maneuver_count": 0}, "202": {"norad_id": "5580", "name": "PROSPERO (BLACK ARROW)", "tle1": "1 05580U 71093A   26161.30260484  .00001078  00000-0  23026-3 0  9993", "tle2": "2 05580  82.0386 296.8728 0500157 246.8235 107.9513 14.01593999747562", "object_type": "PAYLOAD", "criticality_score": 7.0, "last_updated": "2026-06-11T12:15:23.970987+00:00", "maneuver_count": 0}, "204": {"norad_id": "1315", "name": "SECOR 4 (EGRS 4)", "tle1": "1 01315U 65027B   26161.59751183  .00000081  00000-0  27211-3 0  9990", "tle2": "2 01315  90.2498  15.4294 0030055 215.0440 200.3479 12.92667572886079", "object_type": "PAYLOAD", "criticality_score": 7.0, "last_updated": "2026-06-11T12:15:23.970987+00:00", "maneuver_count": 0}, "230": {"norad_id": "15595", "name": "GEOSAT", "tle1": "1 15595U 85021A   26161.61903703  .00000078  00000-0  67767-4 0  9998", "tle2": "2 15595 108.0434  67.7802 0001265 283.1904  76.9097 14.39963246161821", "object_type": "PAYLOAD", "criticality_score": 7.0, "last_updated": "2026-06-11T12:15:23.970987+00:00", "maneuver_count": 0}, "276": {"norad_id": "14154", "name": "HILAT", "tle1": "1 14154U 83063A   26161.50327279  .00000330  00000-0  10174-3 0  9998", "tle2": "2 14154  82.0231 167.2405 0038193 312.4630 161.7667 14.38707193246628", "object_type": "PAYLOAD", "criticality_score": 7.0, "last_updated": "2026-06-11T12:15:23.970987+00:00", "maneuver_count": 0}, "286": {"norad_id": "6235", "name": "NOAA 2 (ITOS-D)", "tle1": "1 06235U 72082A   26161.59039823 -.00000028  00000-0  11786-3 0  9997", "tle2": "2 06235 102.0074 180.0897 0004164 176.9912 304.9205 12.53214761454126", "object_type": "PAYLOAD", "criticality_score": 8.5, "last_updated": "2026-06-11T12:15:23.970987+00:00", "maneuver_count": 0}, "303": {"norad_id": "21688", "name": "IRS 1B", "tle1": "1 21688U 91061A   26161.61689078  .00000335  00000-0  26875-3 0  9995", "tle2": "2 21688  99.4109 169.3991 0024926  23.6065  94.2742 13.97874026667578", "object_type": "PAYLOAD", "criticality_score": 7.0, "last_updated": "2026-06-11T12:15:23.970987+00:00", "maneuver_count": 0}, "306": {"norad_id": "4068", "name": "ATS 5", "tle1": "1 04068U 69069A   26161.51425571 -.00000223  00000-0  00000-0 0  9992", "tle2": "2 04068   0.2486 155.5101 0005247 124.0639 324.6132  0.99497597 46269", "object_type": "PAYLOAD", "criticality_score": 7.0, "last_updated": "2026-06-11T12:15:23.970987+00:00", "maneuver_count": 0}, "320": {"norad_id": "11060", "name": "TIROS N", "tle1": "1 11060U 78096A   26161.58221588  .00000100  00000-0  67386-4 0  9998", "tle2": "2 11060  98.4531 182.9343 0009140 260.5525  99.4618 14.19373268677819", "object_type": "PAYLOAD", "criticality_score": 7.0, "last_updated": "2026-06-11T12:15:23.970987+00:00", "maneuver_count": 0}, "321": {"norad_id": "1430", "name": "TIROS 10", "tle1": "1 01430U 65051A   26161.58840183  .00000139  00000-0  55315-4 0  9994", "tle2": "2 01430  98.5031 280.9483 0056468  98.7581 262.0009 14.41628644194965", "object_type": "PAYLOAD", "criticality_score": 7.0, "last_updated": "2026-06-11T12:15:23.970987+00:00", "maneuver_count": 0}, "323": {"norad_id": "2411", "name": "SECOR 7 (EGRS 7)", "tle1": "1 02411U 66077B   26151.80828715 -.00000017  00000-0 -94661-2 0  9996", "tle2": "2 02411  90.3353 277.2466 0011654  75.1080 285.1061  8.59615314875976", "object_type": "PAYLOAD", "criticality_score": 7.0, "last_updated": "2026-06-11T12:15:23.970987+00:00", "maneuver_count": 0}, "324": {"norad_id": "3891", "name": "SECOR 13 (EGRS 13)", "tle1": "1 03891U 69037B   26161.61374963 -.00000031  00000-0  20945-4 0  9990", "tle2": "2 03891  99.6499  33.3860 0038665 267.5617 157.0681 13.42976767800877", "object_type": "PAYLOAD", "criticality_score": 7.0, "last_updated": "2026-06-11T12:15:23.970987+00:00", "maneuver_count": 0}, "340": {"norad_id": "20439", "name": "OSCAR 16 (PACSAT)", "tle1": "1 20439U 90005D   26161.62544157  .00000100  00000-0  52725-4 0  9998", "tle2": "2 20439  98.8524 197.1507 0009533 248.7150 228.9814 14.33934604900991", "object_type": "PAYLOAD", "criticality_score": 7.0, "last_updated": "2026-06-11T12:15:23.970987+00:00", "maneuver_count": 0}, "591": {"norad_id": "22034", "name": "COSMOS 2197", "tle1": "1 22034U 92042A   26161.59274729  .00000004  00000-0 -35293-4 0  9990", "tle2": "2 22034  82.5943 233.1468 0011389 290.3998 183.3655 12.64251932564453", "object_type": "PAYLOAD", "criticality_score": 7.0, "last_updated": "2026-06-11T12:15:23.970987+00:00", "maneuver_count": 0}}}